1998-067XW              
1 66910U 98067XW  25351.61784312  .00051432  00000+0  83128-3 0  9999
2 66910  51.6302 118.1137 0004529 233.5237 126.5336 15.52327753  2376
1998-067XX              
1 66911U 98067XX  25351.61613211  .00061259  00000+0  97424-3 0  9991
2 66911  51.6305 118.1027 0004219 237.6725 122.3857 15.52703134  2363
1998-067XY              
1 66912U 98067XY  25351.62311855  .00044013  00000+0  73169-3 0  9991
2 66912  51.6301 118.1487 0004152 250.0151 110.0391 15.51610656  2360
2025-284A               
1 66913U 25284A   25351.87110995  .00008209  00000+0  41873-3 0  9996
2 66913  80.4052 123.2713 0020347 157.7756 202.4357 15.16454053  1906
2025-284B               
1 66914U 25284B   25350.28554881  .00008068  00000+0  38445-3 0  9991
2 66914  80.4045 125.2713 0008179 234.9626 125.0834 15.18985981  1668
HULIANWANG DIGUI-105    
1 66915U 25285A   25351.97085333 -.00000014  00000+0  86911-4 0  9997
2 66915  50.0058  95.9708 0008010 300.1774  59.8336 14.03717157  1647
HULIANWANG DIGUI-106    
1 66916U 25285B   25351.96792494 -.00000184  00000+0 -20652-4 0  9999
2 66916  50.0057  95.9568 0006787 293.4872  66.5319 14.03701693  1647
HULIANWANG DIGUI-107    
1 66917U 25285C   25351.96599903 -.00000184  00000+0 -20544-4 0  9990
2 66917  50.0022  95.9408 0007466 302.8852  57.1333 14.03661904  1643
HULIANWANG DIGUI-108    
1 66918U 25285D   25351.96509939 -.00000170  00000+0 -11924-4 0  9998
2 66918  50.0044  95.9395 0006595 297.4721  62.5513 14.03600924  1644
HULIANWANG DIGUI-109    
1 66919U 25285E   25351.96393015 -.00000183  00000+0 -19850-4 0  9995
2 66919  50.0079  95.9375 0007873 309.9709  50.0504 14.03724886  1642
HULIANWANG DIGUI-110    
1 66920U 25285F   25351.96298338 -.00000060  00000+0  57640-4 0  9991
2 66920  50.0113  95.9378 0005573 307.0706  52.9689 14.03681403  1649
HULIANWANG DIGUI-111    
1 66921U 25285G   25351.96199696 -.00000179  00000+0 -17713-4 0  9998
2 66921  50.0114  95.9368 0006729 314.3537  45.6815 14.03630090  1643
